start=new Date('2021-08-25T00:00:00.000Z').valueOf();
sats=[{"EPHEMERIS_TYPE":"0","MEAN_ELEMENT_THEORY":"SGP4","REF_FRAME":"TEME","TLE_LINE1":"1 47679U 21012BM  21236.61508624 -.00000949  00000-0 -44809-4 0  9998","ARG_OF_PERICENTER":"96.3011","MEAN_ANOMALY":"263.8100","CENTER_NAME":"EARTH","LAUNCH_DATE":"2021-02-16","TIME_SYSTEM":"UTC","INCLINATION":"53.0557","GP_ID":"183387043","SEMIMAJOR_AXIS":"6925.366","CLASSIFICATION_TYPE":"U","MEAN_MOTION_DOT":"-0.00000949","NORAD_CAT_ID":"47679","FILE":"3102580","OBJECT_ID":"2021-012BM","ECCENTRICITY":"0.00010670","OBJECT_TYPE":"PAYLOAD","RCS_SIZE":"LARGE","REV_AT_EPOCH":"3008","SITE":"AFETR","BSTAR":"-0.00004480900000","MEAN_MOTION":"15.06394183","DECAY_DATE":null,"COUNTRY_CODE":"US","MEAN_MOTION_DDOT":"0.0000000000000","OBJECT_NAME":"STARLINK-2095","RA_OF_ASC_NODE":"315.0119","PERIOD":"95.593","EPOCH":"2021-08-24T14:45:43.451136","ELEMENT_SET_NO":"999","TLE_LINE2":"2 47679  53.0557 315.0119 0001067  96.3011 263.8100 15.06394183 30085","APOAPSIS":"547.970","PERIAPSIS":"546.492"},{"LAUNCH_DATE":"2021-03-04","CENTER_NAME":"EARTH","MEAN_ANOMALY":"256.6291","TLE_LINE1":"1 47722U 21017A   21236.90029237  .00000487  00000-0  51591-4 0  9993","ARG_OF_PERICENTER":"103.4947","REF_FRAME":"TEME","MEAN_ELEMENT_THEORY":"SGP4","EPHEMERIS_TYPE":"0","MEAN_MOTION":"15.06395932","DECAY_DATE":null,"SITE":"AFETR","BSTAR":"0.00005159100000","OBJECT_TYPE":"PAYLOAD","ECCENTRICITY":"0.00022330","RCS_SIZE":"LARGE","REV_AT_EPOCH":"2812","FILE":"3102580","OBJECT_ID":"2021-017A","MEAN_MOTION_DOT":"0.00000487","NORAD_CAT_ID":"47722","GP_ID":"183387298","SEMIMAJOR_AXIS":"6925.361","CLASSIFICATION_TYPE":"U","INCLINATION":"53.0563","TIME_SYSTEM":"UTC","MEAN_MOTION_DDOT":"0.0000000000000","OBJECT_NAME":"STARLINK-2068","COUNTRY_CODE":"US","PERIAPSIS":"545.680","TLE_LINE2":"2 47722  53.0563  78.7124 0002233 103.4947 256.6291 15.06395932 28120","APOAPSIS":"548.772","ELEMENT_SET_NO":"999","PERIOD":"95.592","EPOCH":"2021-08-24T21:36:25.260768","RA_OF_ASC_NODE":"78.7124"},{"RA_OF_ASC_NODE":"41.7285","ELEMENT_SET_NO":"999","PERIOD":"91.531","EPOCH":"2021-08-24T20:51:03.932928","PERIAPSIS":"346.520","APOAPSIS":"352.743","TLE_LINE2":"2 47723  53.0439  41.7285 0004625   5.3435 354.7631 15.73245212 28600","COUNTRY_CODE":"US","OBJECT_NAME":"STARLINK-2107","MEAN_MOTION_DDOT":"0.0000000000000","MEAN_MOTION_DOT":"0.00027139","NORAD_CAT_ID":"47723","OBJECT_ID":"2021-017B","FILE":"3102580","INCLINATION":"53.0439","TIME_SYSTEM":"UTC","CLASSIFICATION_TYPE":"U","GP_ID":"183386046","SEMIMAJOR_AXIS":"6727.766","DECAY_DATE":null,"MEAN_MOTION":"15.73245212","RCS_SIZE":"LARGE","REV_AT_EPOCH":"2860","OBJECT_TYPE":"PAYLOAD","ECCENTRICITY":"0.00046250","BSTAR":"0.00019667000000","SITE":"AFETR","EPHEMERIS_TYPE":"0","MEAN_ELEMENT_THEORY":"SGP4","MEAN_ANOMALY":"354.7631","LAUNCH_DATE":"2021-03-04","CENTER_NAME":"EARTH","REF_FRAME":"TEME","ARG_OF_PERICENTER":"5.3435","TLE_LINE1":"1 47723U 21017B   21236.86879552  .00027139  00000-0  19667-3 0  9992"},{"REF_FRAME":"TEME","ARG_OF_PERICENTER":"359.7810","TLE_LINE1":"1 47724U 21017C   21236.80515444 -.00002287  00000-0 -11830-4 0  9998","MEAN_ANOMALY":"0.3205","CENTER_NAME":"EARTH","LAUNCH_DATE":"2021-03-04","EPHEMERIS_TYPE":"0","MEAN_ELEMENT_THEORY":"SGP4","REV_AT_EPOCH":"2856","RCS_SIZE":"LARGE","OBJECT_TYPE":"PAYLOAD","ECCENTRICITY":"0.00043440","BSTAR":"-0.00001183000000","SITE":"AFETR","DECAY_DATE":null,"MEAN_MOTION":"15.73204150","INCLINATION":"53.0444","TIME_SYSTEM":"UTC","CLASSIFICATION_TYPE":"U","SEMIMAJOR_AXIS":"6727.883","GP_ID":"183386796","MEAN_MOTION_DOT":"-0.00002287","NORAD_CAT_ID":"47724","OBJECT_ID":"2021-017C","FILE":"3102580","MEAN_MOTION_DDOT":"0.0000000000000","OBJECT_NAME":"STARLINK-2116","COUNTRY_CODE":"US","APOAPSIS":"352.671","TLE_LINE2":"2 47724  53.0444  42.0435 0004344 359.7810   0.3205 15.73204150 28561","PERIAPSIS":"346.826","RA_OF_ASC_NODE":"42.0435","PERIOD":"91.533","ELEMENT_SET_NO":"999","EPOCH":"2021-08-24T19:19:25.343616"},{"PERIAPSIS":"545.825","APOAPSIS":"548.649","TLE_LINE2":"2 47725  53.0563  83.8486 0002039  90.6029 269.5193 15.06392305 27992","PERIOD":"95.593","ELEMENT_SET_NO":"999","EPOCH":"2021-08-24T20:51:59.816448","RA_OF_ASC_NODE":"83.8486","MEAN_MOTION_DDOT":"0.0000000000000","OBJECT_NAME":"STARLINK-2125","COUNTRY_CODE":"US","DECAY_DATE":null,"MEAN_MOTION":"15.06392305","BSTAR":"-0.00006132300000","SITE":"AFETR","REV_AT_EPOCH":"2799","RCS_SIZE":"LARGE","OBJECT_TYPE":"PAYLOAD","ECCENTRICITY":"0.00020390","OBJECT_ID":"2021-017D","FILE":"3102580","NORAD_CAT_ID":"47725","MEAN_MOTION_DOT":"-0.00001195","CLASSIFICATION_TYPE":"U","GP_ID":"183387048","SEMIMAJOR_AXIS":"6925.372","TIME_SYSTEM":"UTC","INCLINATION":"53.0563","LAUNCH_DATE":"2021-03-04","CENTER_NAME":"EARTH","MEAN_ANOMALY":"269.5193","ARG_OF_PERICENTER":"90.6029","TLE_LINE1":"1 47725U 21017D   21236.86944232 -.00001195  00000-0 -61323-4 0  9995","REF_FRAME":"TEME","MEAN_ELEMENT_THEORY":"SGP4","EPHEMERIS_TYPE":"0"},{"COUNTRY_CODE":"US","MEAN_MOTION_DDOT":"0.0000000000000","OBJECT_NAME":"STARLINK-2126","PERIOD":"95.592","ELEMENT_SET_NO":"999","EPOCH":"2021-08-24T20:30:45.548640","RA_OF_ASC_NODE":"83.9140","PERIAPSIS":"546.001","TLE_LINE2":"2 47726  53.0558  83.9140 0001738  98.4648 261.6538 15.06402861 27987","APOAPSIS":"548.408","MEAN_ELEMENT_THEORY":"SGP4","EPHEMERIS_TYPE":"0","LAUNCH_DATE":"2021-03-04","CENTER_NAME":"EARTH","MEAN_ANOMALY":"261.6538","TLE_LINE1":"1 47726U 21017E   21236.85469385  .00000644  00000-0  62104-4 0  9990","ARG_OF_PERICENTER":"98.4648","REF_FRAME":"TEME","FILE":"3102580","OBJECT_ID":"2021-017E","NORAD_CAT_ID":"47726","MEAN_MOTION_DOT":"0.00000644","SEMIMAJOR_AXIS":"6925.340","GP_ID":"183387798","CLASSIFICATION_TYPE":"U","TIME_SYSTEM":"UTC","INCLINATION":"53.0558","MEAN_MOTION":"15.06402861","DECAY_DATE":null,"SITE":"AFETR","BSTAR":"0.00006210400000","OBJECT_TYPE":"PAYLOAD","ECCENTRICITY":"0.00017380","REV_AT_EPOCH":"2798","RCS_SIZE":"LARGE"},{"COUNTRY_CODE":"US","MEAN_MOTION_DDOT":"0.0000000000000","OBJECT_NAME":"STARLINK-2129","PERIOD":"91.531","ELEMENT_SET_NO":"999","EPOCH":"2021-08-24T17:47:46.783680","RA_OF_ASC_NODE":"42.3564","APOAPSIS":"352.700","TLE_LINE2":"2 47727  53.0437  42.3564 0004514   3.1050 356.9995 15.73234199 28592","PERIAPSIS":"346.626","MEAN_ELEMENT_THEORY":"SGP4","EPHEMERIS_TYPE":"0","ARG_OF_PERICENTER":"3.1050","TLE_LINE1":"1 47727U 21017F   21236.74151370  .00022376  00000-0  16311-3 0  9995","REF_FRAME":"TEME","LAUNCH_DATE":"2021-03-04","CENTER_NAME":"EARTH","MEAN_ANOMALY":"356.9995","CLASSIFICATION_TYPE":"U","GP_ID":"183386546","SEMIMAJOR_AXIS":"6727.798","TIME_SYSTEM":"UTC","INCLINATION":"53.0437","OBJECT_ID":"2021-017F","FILE":"3102580","MEAN_MOTION_DOT":"0.00022376","NORAD_CAT_ID":"47727","BSTAR":"0.00016311000000","SITE":"AFETR","RCS_SIZE":"LARGE","REV_AT_EPOCH":"2859","OBJECT_TYPE":"PAYLOAD","ECCENTRICITY":"0.00045140","DECAY_DATE":null,"MEAN_MOTION":"15.73234199"},{"BSTAR":"0.00006083700000","SITE":"AFETR","RCS_SIZE":"LARGE","REV_AT_EPOCH":"2804","ECCENTRICITY":"0.00023100","OBJECT_TYPE":"PAYLOAD","DECAY_DATE":null,"MEAN_MOTION":"15.06401735","CLASSIFICATION_TYPE":"U","SEMIMAJOR_AXIS":"6925.343","GP_ID":"183386297","INCLINATION":"53.0569","TIME_SYSTEM":"UTC","OBJECT_ID":"2021-017G","FILE":"3102580","NORAD_CAT_ID":"47728","MEAN_MOTION_DOT":"0.00000624","ARG_OF_PERICENTER":"90.2233","TLE_LINE1":"1 47728U 21017G   21236.82888603  .00000624  00000-0  60837-4 0  9996","REF_FRAME":"TEME","LAUNCH_DATE":"2021-03-04","CENTER_NAME":"EARTH","MEAN_ANOMALY":"269.9020","MEAN_ELEMENT_THEORY":"SGP4","EPHEMERIS_TYPE":"0","APOAPSIS":"548.808","TLE_LINE2":"2 47728  53.0569  84.0324 0002310  90.2233 269.9020 15.06401735 28048","PERIAPSIS":"545.608","ELEMENT_SET_NO":"999","PERIOD":"95.592","EPOCH":"2021-08-24T19:53:35.752992","RA_OF_ASC_NODE":"84.0324","MEAN_MOTION_DDOT":"0.0000000000000","OBJECT_NAME":"STARLINK-2131","COUNTRY_CODE":"US"},{"MEAN_ELEMENT_THEORY":"SGP4","EPHEMERIS_TYPE":"0","LAUNCH_DATE":"2021-03-04","CENTER_NAME":"EARTH","MEAN_ANOMALY":"356.2922","TLE_LINE1":"1 47729U 21017H   21236.86890078  .00015069  00000-0  11137-3 0  9997","ARG_OF_PERICENTER":"3.8129","REF_FRAME":"TEME","FILE":"3102580","OBJECT_ID":"2021-017H","MEAN_MOTION_DOT":"0.00015069","NORAD_CAT_ID":"47729","SEMIMAJOR_AXIS":"6727.784","GP_ID":"183387548","CLASSIFICATION_TYPE":"U","TIME_SYSTEM":"UTC","INCLINATION":"53.0435","MEAN_MOTION":"15.73238918","DECAY_DATE":null,"SITE":"AFETR","BSTAR":"0.00011137000000","OBJECT_TYPE":"PAYLOAD","ECCENTRICITY":"0.00044190","REV_AT_EPOCH":"2857","RCS_SIZE":"LARGE","COUNTRY_CODE":"US","MEAN_MOTION_DDOT":"0.0000000000000","OBJECT_NAME":"STARLINK-2132","EPOCH":"2021-08-24T20:51:13.027392","PERIOD":"91.531","ELEMENT_SET_NO":"999","RA_OF_ASC_NODE":"41.7278","PERIAPSIS":"346.676","TLE_LINE2":"2 47729  53.0435  41.7278 0004419   3.8129 356.2922 15.73238918 28579","APOAPSIS":"352.622"},{"ELEMENT_SET_NO":"999","PERIOD":"95.593","EPOCH":"2021-08-24T22:00:18.241920","RA_OF_ASC_NODE":"98.6396","PERIAPSIS":"545.757","APOAPSIS":"548.732","TLE_LINE2":"2 47730  53.0566  98.6396 0002148  76.0708 284.0519 15.06389925 27794","COUNTRY_CODE":"US","MEAN_MOTION_DDOT":"0.0000000000000","OBJECT_NAME":"STARLINK-2140","OBJECT_ID":"2021-017J","FILE":"3102580","NORAD_CAT_ID":"47730","MEAN_MOTION_DOT":"0.00000514","CLASSIFICATION_TYPE":"U","GP_ID":"183387299","SEMIMAJOR_AXIS":"6925.379","TIME_SYSTEM":"UTC","INCLINATION":"53.0566","DECAY_DATE":null,"MEAN_MOTION":"15.06389925","BSTAR":"0.00005343500000","SITE":"AFETR","REV_AT_EPOCH":"2779","RCS_SIZE":"LARGE","OBJECT_TYPE":"PAYLOAD","ECCENTRICITY":"0.00021480","MEAN_ELEMENT_THEORY":"SGP4","EPHEMERIS_TYPE":"0","LAUNCH_DATE":"2021-03-04","CENTER_NAME":"EARTH","MEAN_ANOMALY":"284.0519","ARG_OF_PERICENTER":"76.0708","TLE_LINE1":"1 47730U 21017J   21236.91687780  .00000514  00000-0  53435-4 0  9996","REF_FRAME":"TEME"}];
